     3.00           N                   E                   RINEX VERSION / TYPE
BRD_USR             ESA                 20190106 171745  UTCPGM / RUN BY / DATE
 GAL   4.9750E+01  3.9062E-03 -3.2654E-03  0.0000E+00       IONOSPHERIC CORR
GAUT  0.0000000000E+00 0.000000000E+00      0 2035 GSTB   0 TIME SYSTEM CORR
GPGA -2.1245796233E-09 4.440892099E-15  86400 2035 GSTB   0 TIME SYSTEM CORR
                                                            END OF HEADER
E18 2019 01 06 15 20 00 5.626384809148E-03-2.846434199455E-11 0.000000000000E+00
     9.200000000000E+01-1.144687500000E+02 3.166917629117E-09-1.990119440829E+00
    -1.890584826469E-06 1.664233878255E-01-7.836148142815E-06 5.289397783279E+03
     5.520000000000E+04 2.013519406319E-06-1.444357442188E+00-8.195638656616E-07
     8.817605246137E-01 4.574375000000E+02 1.437940801149E+00-4.983064707504E-09
     1.045043530258E-09 5.210000000000E+02 2.035000000000E+03 0.000000000000E+00
     3.120000000000E+00 4.550000000000E+02 1.420266926289E-08 1.583248376846E-08
     5.591500000000E+04 0.000000000000E+00 0.000000000000E+00 0.000000000000E+00
E26 2019 01 06 15 20 00 5.050316103734E-03-4.328626346251E-11 0.000000000000E+00
     9.200000000000E+01-1.656562500000E+02 2.898335013001E-09-1.542159548861E+00
    -7.631257176399E-06 3.261452075094E-04 8.028000593185E-07 5.440609479904E+03
     5.520000000000E+04 5.029141902924E-08-8.572682345601E-01 5.401670932770E-08
     9.783149786772E-01 3.306875000000E+02-2.110086835209E+00-5.797384341471E-09
    -2.507247294057E-10 5.210000000000E+02 2.035000000000E+03 0.000000000000E+00
     3.120000000000E+00 0.000000000000E+00 9.313225746155E-10 1.164153218269E-09
     5.591500000000E+04 0.000000000000E+00 0.000000000000E+00 0.000000000000E+00
E30 2019 01 06 15 20 00 5.210009112488E-03-3.048228336411E-11 0.000000000000E+00
     9.200000000000E+01 1.612812500000E+02 2.312596328920E-09-4.927490965891E-01
     7.351860404015E-06 2.961951540783E-04 1.168809831142E-05 5.440628032684E+03
     5.520000000000E+04 9.313225746155E-09-2.943115863081E+00-7.450580596924E-09
     9.878991650513E-01 9.946875000000E+01 4.978579620110E-01-5.078782980268E-09
    -2.753686130652E-10 5.210000000000E+02 2.035000000000E+03 0.000000000000E+00
     3.120000000000E+00 0.000000000000E+00-2.793967723846E-09-3.492459654808E-09
     5.594500000000E+04 0.000000000000E+00 0.000000000000E+00 0.000000000000E+00
E13 2019 01 06 15 20 00 3.814026713371E-04 4.263256414561E-13 0.000000000000E+00
     9.200000000000E+01-1.746875000000E+02 2.844404195138E-09-1.263722952093E+00
    -8.054077625275E-06 3.329247701913E-04 1.257285475731E-06 5.440599119186E+03
     5.520000000000E+04 2.235174179077E-08-8.662039152014E-01 4.284083843231E-08
     9.851969666424E-01 3.259687500000E+02-1.606754408456E+00-5.759168463912E-09
    -2.500104139373E-10 2.580000000000E+02 2.035000000000E+03 0.000000000000E+00
     3.120000000000E+00 5.600000000000E+01-4.656612873077E-09 0.000000000000E+00
     5.595000000000E+04 0.000000000000E+00 0.000000000000E+00 0.000000000000E+00
E15 2019 01 06 15 20 00 9.236925398000E-04-1.080024958355E-12 0.000000000000E+00
     9.200000000000E+01-1.765000000000E+02 2.844047037403E-09-4.033625402746E-01
    -8.197501301765E-06 3.830004716292E-04 1.644715666771E-06 5.440599500656E+03
     5.520000000000E+04-3.911554813385E-08-8.662153537578E-01 5.215406417847E-08
     9.851549223768E-01 3.170625000000E+02-1.684900064634E+00-5.731310160645E-09
    -2.875119760278E-10 2.580000000000E+02 2.035000000000E+03 0.000000000000E+00
     3.120000000000E+00 5.600000000000E+01 1.164153218269E-09 0.000000000000E+00
     5.595000000000E+04 0.000000000000E+00 0.000000000000E+00 0.000000000000E+00
E30 2019 01 06 15 20 00 5.210009287111E-03-3.048228336411E-11 0.000000000000E+00
     9.200000000000E+01 1.612812500000E+02 2.312596328920E-09-4.927490965891E-01
     7.351860404015E-06 2.961951540783E-04 1.168809831142E-05 5.440628032684E+03
     5.520000000000E+04 9.313225746155E-09-2.943115863081E+00-7.450580596924E-09
     9.878991650513E-01 9.946875000000E+01 4.978579620110E-01-5.078782980268E-09
    -2.753686130652E-10 2.580000000000E+02 2.035000000000E+03 0.000000000000E+00
     3.120000000000E+00 0.000000000000E+00-2.793967723846E-09 0.000000000000E+00
     5.595000000000E+04 0.000000000000E+00 0.000000000000E+00 0.000000000000E+00
E13 2019 01 06 15 20 00 3.814022638835E-04 4.263256414561E-13 0.000000000000E+00
     9.200000000000E+01-1.746875000000E+02 2.844404195138E-09-1.263722952093E+00
    -8.054077625275E-06 3.329247701913E-04 1.257285475731E-06 5.440599119186E+03
     5.520000000000E+04 2.235174179077E-08-8.662039152014E-01 4.284083843231E-08
     9.851969666424E-01 3.259687500000E+02-1.606754408456E+00-5.759168463912E-09
    -2.500104139373E-10 5.210000000000E+02 2.035000000000E+03 0.000000000000E+00
     3.120000000000E+00 4.550000000000E+02-4.656612873077E-09-5.820766091347E-09
     5.597500000000E+04 0.000000000000E+00 0.000000000000E+00 0.000000000000E+00
E15 2019 01 06 15 20 00 9.236928890459E-04-1.094235813071E-12 0.000000000000E+00
     9.200000000000E+01-1.765000000000E+02 2.844047037403E-09-4.033625402746E-01
    -8.197501301765E-06 3.830004716292E-04 1.644715666771E-06 5.440599500656E+03
     5.520000000000E+04-3.911554813385E-08-8.662153537578E-01 5.215406417847E-08
     9.851549223768E-01 3.170625000000E+02-1.684900064634E+00-5.731310160645E-09
    -2.875119760278E-10 5.210000000000E+02 2.035000000000E+03 0.000000000000E+00
     3.120000000000E+00 4.550000000000E+02 1.164153218269E-09 1.164153218269E-09
     5.597500000000E+04 0.000000000000E+00 0.000000000000E+00 0.000000000000E+00
E03 2019 01 06 15 20 00-1.191769842990E-04-4.263256414561E-12 0.000000000000E+00
     9.200000000000E+01 3.271875000000E+01 3.779085985529E-09 2.242746859409E+00
     1.568347215652E-06 2.739120973274E-04 5.435198545456E-06 5.440604665756E+03
     5.520000000000E+04-1.303851604462E-08 1.244270701555E+00 2.607703208923E-08
     9.522089378386E-01 2.205312500000E+02 6.386363155031E-01-5.705237646048E-09
     4.950206195958E-10 5.210000000000E+02 2.035000000000E+03 0.000000000000E+00
     3.120000000000E+00 0.000000000000E+00-1.862645149231E-09-2.095475792885E-09
     5.603500000000E+04 0.000000000000E+00 0.000000000000E+00 0.000000000000E+00
E03 2019 01 06 15 20 00-1.191772171296E-04-4.263256414561E-12 0.000000000000E+00
     9.200000000000E+01 3.271875000000E+01 3.779085985529E-09 2.242746859409E+00
     1.568347215652E-06 2.739120973274E-04 5.435198545456E-06 5.440604665756E+03
     5.520000000000E+04-1.303851604462E-08 1.244270701555E+00 2.607703208923E-08
     9.522089378386E-01 2.205312500000E+02 6.386363155031E-01-5.705237646048E-09
     4.950206195958E-10 2.580000000000E+02 2.035000000000E+03 0.000000000000E+00
     3.120000000000E+00 0.000000000000E+00-1.862645149231E-09 0.000000000000E+00
     5.605000000000E+04 0.000000000000E+00 0.000000000000E+00 0.000000000000E+00
E05 2019 01 06 15 20 00 1.296704285778E-04-6.522782314278E-12 0.000000000000E+00
     9.200000000000E+01 3.690625000000E+01 3.745156000780E-09 2.098272112770E+00
     1.650303602219E-06 1.453920267522E-04 5.293637514114E-06 5.440604434967E+03
     5.520000000000E+04-1.490116119385E-08 1.244254682602E+00-2.607703208923E-08
     9.522220631396E-01 2.233125000000E+02 1.570581333428E+00-5.749525205089E-09
     4.800199947595E-10 5.210000000000E+02 2.035000000000E+03 0.000000000000E+00
     3.120000000000E+00 0.000000000000E+00-1.396983861923E-09-1.629814505577E-09
     5.609500000000E+04 0.000000000000E+00 0.000000000000E+00 0.000000000000E+00
E05 2019 01 06 15 20 00 1.296701957472E-04-6.522782314278E-12 0.000000000000E+00
     9.200000000000E+01 3.690625000000E+01 3.745156000780E-09 2.098272112770E+00
     1.650303602219E-06 1.453920267522E-04 5.293637514114E-06 5.440604434967E+03
     5.520000000000E+04-1.490116119385E-08 1.244254682602E+00-2.607703208923E-08
     9.522220631396E-01 2.233125000000E+02 1.570581333428E+00-5.749525205089E-09
     4.800199947595E-10 2.580000000000E+02 2.035000000000E+03 0.000000000000E+00
     3.120000000000E+00 0.000000000000E+00-1.396983861923E-09 0.000000000000E+00
     5.610000000000E+04 0.000000000000E+00 0.000000000000E+00 0.000000000000E+00
E03 2019 01 06 15 20 00-1.191769842990E-04-4.263256414561E-12 0.000000000000E+00
     9.200000000000E+01 3.271875000000E+01 3.779085985529E-09 2.242746859409E+00
     1.568347215652E-06 2.739120973274E-04 5.435198545456E-06 5.440604665756E+03
     5.520000000000E+04-1.303851604462E-08 1.244270701555E+00 2.607703208923E-08
     9.522089378386E-01 2.205312500000E+02 6.386363155031E-01-5.705237646048E-09
     4.950206195958E-10 5.210000000000E+02 2.035000000000E+03 0.000000000000E+00
     3.120000000000E+00 0.000000000000E+00-1.862645149231E-09-2.095475792885E-09
     5.639500000000E+04 0.000000000000E+00 0.000000000000E+00 0.000000000000E+00
E03 2019 01 06 15 20 00-1.191772171296E-04-4.263256414561E-12 0.000000000000E+00
     9.200000000000E+01 3.271875000000E+01 3.779085985529E-09 2.242746859409E+00
     1.568347215652E-06 2.739120973274E-04 5.435198545456E-06 5.440604665756E+03
     5.520000000000E+04-1.303851604462E-08 1.244270701555E+00 2.607703208923E-08
     9.522089378386E-01 2.205312500000E+02 6.386363155031E-01-5.705237646048E-09
     4.950206195958E-10 2.580000000000E+02 2.035000000000E+03 0.000000000000E+00
     3.120000000000E+00 0.000000000000E+00-1.862645149231E-09 0.000000000000E+00
     5.640000000000E+04 0.000000000000E+00 0.000000000000E+00 0.000000000000E+00
